CCSDS_OMM_VERS = 2.0
CREATION_DATE  = 
ORIGINATOR     = 

OBJECT_NAME    = COSMOS 1933
OBJECT_ID      = 1988-020A
CENTER_NAME    = EARTH
REF_FRAME      = TEME
TIME_SYSTEM    = UTC
MEAN_ELEMENT_THEORY = SGP/SGP4

EPOCH          = 2025-12-10T10:39:54.222912
MEAN_MOTION    = 15.17078405
ECCENTRICITY   = .0005567
INCLINATION    = 82.5139
RA_OF_ASC_NODE = 339.1469
ARG_OF_PERICENTER = 133.9450
MEAN_ANOMALY   = 226.2243

EPHEMERIS_TYPE = 0
CLASSIFICATION_TYPE = U
NORAD_CAT_ID   = 18958
ELEMENT_SET_NO = 999
REV_AT_EPOCH   = 3669
BSTAR          = .28866E-3
MEAN_MOTION_DOT = .5746E-4
MEAN_MOTION_DDOT = 0

CCSDS_OMM_VERS = 2.0
CREATION_DATE  = 
ORIGINATOR     = 

OBJECT_NAME    = SL-3 R/B
OBJECT_ID      = 1988-032B
CENTER_NAME    = EARTH
REF_FRAME      = TEME
TIME_SYSTEM    = UTC
MEAN_ELEMENT_THEORY = SGP/SGP4

EPOCH          = 2025-12-10T11:45:01.598976
MEAN_MOTION    = 15.18704830
ECCENTRICITY   = .0026514
INCLINATION    = 97.5084
RA_OF_ASC_NODE = 323.2255
ARG_OF_PERICENTER = 180.8093
MEAN_ANOMALY   = 179.3102

EPHEMERIS_TYPE = 0
CLASSIFICATION_TYPE = U
NORAD_CAT_ID   = 19046
ELEMENT_SET_NO = 999
REV_AT_EPOCH   = 3856
BSTAR          = .387E-3
MEAN_MOTION_DOT = .8036E-4
MEAN_MOTION_DDOT = 0

CCSDS_OMM_VERS = 2.0
CREATION_DATE  = 
ORIGINATOR     = 

OBJECT_NAME    = SL-16 R/B
OBJECT_ID      = 1988-039B
CENTER_NAME    = EARTH
REF_FRAME      = TEME
TIME_SYSTEM    = UTC
MEAN_ELEMENT_THEORY = SGP/SGP4

EPOCH          = 2025-12-10T11:48:41.548320
MEAN_MOTION    = 14.19596606
ECCENTRICITY   = .0019757
INCLINATION    = 71.0153
RA_OF_ASC_NODE = 257.1505
ARG_OF_PERICENTER = 120.0948
MEAN_ANOMALY   = 240.2139

EPHEMERIS_TYPE = 0
CLASSIFICATION_TYPE = U
NORAD_CAT_ID   = 19120
ELEMENT_SET_NO = 999
REV_AT_EPOCH   = 94572
BSTAR          = .46954E-4
MEAN_MOTION_DOT = .51E-6
MEAN_MOTION_DDOT = 0

CCSDS_OMM_VERS = 2.0
CREATION_DATE  = 
ORIGINATOR     = 

OBJECT_NAME    = COSMOS 1953
OBJECT_ID      = 1988-050A
CENTER_NAME    = EARTH
REF_FRAME      = TEME
TIME_SYSTEM    = UTC
MEAN_ELEMENT_THEORY = SGP/SGP4

EPOCH          = 2025-12-10T11:25:47.200800
MEAN_MOTION    = 15.26896592
ECCENTRICITY   = .0013832
INCLINATION    = 82.5089
RA_OF_ASC_NODE = 247.8524
ARG_OF_PERICENTER = 78.7198
MEAN_ANOMALY   = 281.5594

EPHEMERIS_TYPE = 0
CLASSIFICATION_TYPE = U
NORAD_CAT_ID   = 19210
ELEMENT_SET_NO = 999
REV_AT_EPOCH   = 2416
BSTAR          = .3523E-3
MEAN_MOTION_DOT = .9364E-4
MEAN_MOTION_DDOT = 0

CCSDS_OMM_VERS = 2.0
CREATION_DATE  = 
ORIGINATOR     = 

OBJECT_NAME    = SL-8 R/B
OBJECT_ID      = 1988-053B
CENTER_NAME    = EARTH
REF_FRAME      = TEME
TIME_SYSTEM    = UTC
MEAN_ELEMENT_THEORY = SGP/SGP4

EPOCH          = 2025-12-10T07:49:44.747904
MEAN_MOTION    = 14.38856908
ECCENTRICITY   = .0019036
INCLINATION    = 74.0479
RA_OF_ASC_NODE = 277.1675
ARG_OF_PERICENTER = 122.2317
MEAN_ANOMALY   = 355.3313

EPHEMERIS_TYPE = 0
CLASSIFICATION_TYPE = U
NORAD_CAT_ID   = 19257
ELEMENT_SET_NO = 999
REV_AT_EPOCH   = 96374
BSTAR          = .15768E-3
MEAN_MOTION_DOT = .46E-5
MEAN_MOTION_DDOT = 0

CCSDS_OMM_VERS = 2.0
CREATION_DATE  = 
ORIGINATOR     = 

OBJECT_NAME    = COSMOS 1975
OBJECT_ID      = 1988-093A
CENTER_NAME    = EARTH
REF_FRAME      = TEME
TIME_SYSTEM    = UTC
MEAN_ELEMENT_THEORY = SGP/SGP4

EPOCH          = 2025-12-10T02:14:11.220288
MEAN_MOTION    = 15.26410022
ECCENTRICITY   = .00127442
INCLINATION    = 82.5203
RA_OF_ASC_NODE = 207.4783
ARG_OF_PERICENTER = 120.7955
MEAN_ANOMALY   = 239.4539

EPHEMERIS_TYPE = 0
CLASSIFICATION_TYPE = U
NORAD_CAT_ID   = 19573
ELEMENT_SET_NO = 999
REV_AT_EPOCH   = 573
BSTAR          = .3907053E-3
MEAN_MOTION_DOT = .10226E-3
MEAN_MOTION_DDOT = 0

CCSDS_OMM_VERS = 2.0
CREATION_DATE  = 
ORIGINATOR     = 

OBJECT_NAME    = SL-14 R/B
OBJECT_ID      = 1988-093B
CENTER_NAME    = EARTH
REF_FRAME      = TEME
TIME_SYSTEM    = UTC
MEAN_ELEMENT_THEORY = SGP/SGP4

EPOCH          = 2025-12-10T11:39:32.066784
MEAN_MOTION    = 14.85545442
ECCENTRICITY   = .0020127
INCLINATION    = 82.5302
RA_OF_ASC_NODE = 125.7824
ARG_OF_PERICENTER = 337.1870
MEAN_ANOMALY   = 88.2301

EPHEMERIS_TYPE = 0
CLASSIFICATION_TYPE = U
NORAD_CAT_ID   = 19574
ELEMENT_SET_NO = 999
REV_AT_EPOCH   = 98779
BSTAR          = .10187E-3
MEAN_MOTION_DOT = .907E-5
MEAN_MOTION_DDOT = 0

CCSDS_OMM_VERS = 2.0
CREATION_DATE  = 
ORIGINATOR     = 

OBJECT_NAME    = SL-16 R/B
OBJECT_ID      = 1988-102B
CENTER_NAME    = EARTH
REF_FRAME      = TEME
TIME_SYSTEM    = UTC
MEAN_ELEMENT_THEORY = SGP/SGP4

EPOCH          = 2025-12-10T09:50:24.628128
MEAN_MOTION    = 14.16136248
ECCENTRICITY   = .0013065
INCLINATION    = 70.9997
RA_OF_ASC_NODE = 339.3454
ARG_OF_PERICENTER = 155.9117
MEAN_ANOMALY   = 204.2620

EPHEMERIS_TYPE = 0
CLASSIFICATION_TYPE = U
NORAD_CAT_ID   = 19650
ELEMENT_SET_NO = 999
REV_AT_EPOCH   = 91425
BSTAR          = -.29493E-4
MEAN_MOTION_DOT = -.106E-5
MEAN_MOTION_DDOT = 0

CCSDS_OMM_VERS = 2.0
CREATION_DATE  = 
ORIGINATOR     = 

OBJECT_NAME    = INTERCOSMOS 24
OBJECT_ID      = 1989-080A
CENTER_NAME    = EARTH
REF_FRAME      = TEME
TIME_SYSTEM    = UTC
MEAN_ELEMENT_THEORY = SGP/SGP4

EPOCH          = 2025-12-10T12:28:24.434400
MEAN_MOTION    = 12.59433785
ECCENTRICITY   = .1188823
INCLINATION    = 82.6043
RA_OF_ASC_NODE = 162.3963
ARG_OF_PERICENTER = 139.6682
MEAN_ANOMALY   = 229.9039

EPHEMERIS_TYPE = 0
CLASSIFICATION_TYPE = U
NORAD_CAT_ID   = 20261
ELEMENT_SET_NO = 999
REV_AT_EPOCH   = 65557
BSTAR          = .44651E-3
MEAN_MOTION_DOT = .1538E-4
MEAN_MOTION_DDOT = 0

CCSDS_OMM_VERS = 2.0
CREATION_DATE  = 
ORIGINATOR     = 

OBJECT_NAME    = SL-14 R/B
OBJECT_ID      = 1989-080C
CENTER_NAME    = EARTH
REF_FRAME      = TEME
TIME_SYSTEM    = UTC
MEAN_ELEMENT_THEORY = SGP/SGP4

EPOCH          = 2025-12-10T10:10:47.647776
MEAN_MOTION    = 12.50410976
ECCENTRICITY   = .1230692
INCLINATION    = 82.5931
RA_OF_ASC_NODE = 230.5070
ARG_OF_PERICENTER = 28.8785
MEAN_ANOMALY   = 337.5065

EPHEMERIS_TYPE = 0
CLASSIFICATION_TYPE = U
NORAD_CAT_ID   = 20262
ELEMENT_SET_NO = 999
REV_AT_EPOCH   = 64899
BSTAR          = .18702E-3
MEAN_MOTION_DOT = .639E-5
MEAN_MOTION_DDOT = 0

CCSDS_OMM_VERS = 2.0
CREATION_DATE  = 
ORIGINATOR     = 

OBJECT_NAME    = DELTA 1 R/B
OBJECT_ID      = 1989-089B
CENTER_NAME    = EARTH
REF_FRAME      = TEME
TIME_SYSTEM    = UTC
MEAN_ELEMENT_THEORY = SGP/SGP4

EPOCH          = 2025-12-10T12:01:59.490336
MEAN_MOTION    = 14.50569490
ECCENTRICITY   = .0070253
INCLINATION    = 97.0754
RA_OF_ASC_NODE = 201.0937
ARG_OF_PERICENTER = 45.2528
MEAN_ANOMALY   = 315.4358

EPHEMERIS_TYPE = 0
CLASSIFICATION_TYPE = U
NORAD_CAT_ID   = 20323
ELEMENT_SET_NO = 999
REV_AT_EPOCH   = 88280
BSTAR          = .14866E-3
MEAN_MOTION_DOT = .566E-5
MEAN_MOTION_DDOT = 0

CCSDS_OMM_VERS = 2.0
CREATION_DATE  = 
ORIGINATOR     = 

OBJECT_NAME    = ARIANE 40 R/B
OBJECT_ID      = 1990-005H
CENTER_NAME    = EARTH
REF_FRAME      = TEME
TIME_SYSTEM    = UTC
MEAN_ELEMENT_THEORY = SGP/SGP4

EPOCH          = 2025-12-10T04:01:48.870336
MEAN_MOTION    = 14.39795649
ECCENTRICITY   = .00112285
INCLINATION    = 98.3245
RA_OF_ASC_NODE = 42.4184
ARG_OF_PERICENTER = 112.7418
MEAN_ANOMALY   = 247.4959

EPHEMERIS_TYPE = 0
CLASSIFICATION_TYPE = U
NORAD_CAT_ID   = 20443
ELEMENT_SET_NO = 999
REV_AT_EPOCH   = 87992
BSTAR          = .17288621E-3
MEAN_MOTION_DOT = .5E-5
MEAN_MOTION_DDOT = 0

